STARLINK-1350
1 45535U 20025E   26092.79378766  .00018477  00000+0  51658-3 0  9997
2 45535  53.0710 279.8878 0001852 116.1895 243.9298 15.36746981329861
